{
  "type": "FeatureCollection",
  "features": [
    {
      "type": "Feature",
      "properties": {
        "norad_id": 34797,
        "name": "COSMOS 2251 DEB",
        "group": "cosmos-2251-debris",
        "lat": 17.321074876978617,
        "lon": -70.10383214930432,
        "alt_km": 730.2352127654658,
        "timestamp": "2025-12-04T15:47:54.494373+00:00",
        "meta_object_name": "COSMOS 2251 DEB",
        "meta_object_id": "1993-036ABA",
        "meta_epoch": "2025-12-02T16:26:28.609440",
        "meta_mean_motion": 14.42535201,
        "meta_eccentricity": 0.00725247,
        "meta_inclination": 73.9763,
        "meta_ra_of_asc_node": 118.7115,
        "meta_arg_of_pericenter": 233.7261,
        "meta_mean_anomaly": 125.7182,
        "meta_ephemeris_type": 0,
        "meta_classification_type": "U",
        "meta_norad_cat_id": 34797,
        "meta_element_set_no": 999,
        "meta_rev_at_epoch": 87270,
        "meta_bstar": 0.0028458232,
        "meta_mean_motion_dot": 9.728e-05,
        "meta_mean_motion_ddot": 0,
        "tle_line1": "1 34797U 93036ABA 25336.68505335  .00009728  00000+0  28458-2 0  9999",
        "tle_line2": "2 34797  73.9763 118.7115 0072524 233.7261 125.7182 14.42535201872702"
      },
      "geometry": {
        "type": "Point",
        "coordinates": [
          -70.10383214930432,
          17.321074876978617
        ]
      }
    },
    {
      "type": "Feature",
      "properties": {
        "norad_id": 34814,
        "name": "COSMOS 2251 DEB",
        "group": "cosmos-2251-debris",
        "lat": -41.5779201348946,
        "lon": -34.42362540761822,
        "alt_km": 771.5583594846476,
        "timestamp": "2025-12-04T15:47:54.494383+00:00",
        "meta_object_name": "COSMOS 2251 DEB",
        "meta_object_id": "1993-036ABD",
        "meta_epoch": "2025-12-02T11:13:46.501248",
        "meta_mean_motion": 14.36815971,
        "meta_eccentricity": 0.00568423,
        "meta_inclination": 73.8957,
        "meta_ra_of_asc_node": 344.4866,
        "meta_arg_of_pericenter": 235.7348,
        "meta_mean_anomaly": 274.6986,
        "meta_ephemeris_type": 0,
        "meta_classification_type": "U",
        "meta_norad_cat_id": 34814,
        "meta_element_set_no": 999,
        "meta_rev_at_epoch": 87185,
        "meta_bstar": 0.0010643945,
        "meta_mean_motion_dot": 3.176e-05,
        "meta_mean_motion_ddot": 0,
        "tle_line1": "1 34814U 93036ABD 25336.46789932  .00003176  00000+0  10644-2 0  9991",
        "tle_line2": "2 34814  73.8957 344.4866 0056842 235.7348 274.6986 14.36815971871859"
      },
      "geometry": {
        "type": "Point",
        "coordinates": [
          -34.42362540761822,
          -41.5779201348946
        ]
      }
    },
    {
      "type": "Feature",
      "properties": {
        "norad_id": 34815,
        "name": "COSMOS 2251 DEB",
        "group": "cosmos-2251-debris",
        "lat": -10.30992725861063,
        "lon": -105.31628472067534,
        "alt_km": 600.4558733992853,
        "timestamp": "2025-12-04T15:47:54.494393+00:00",
        "meta_object_name": "COSMOS 2251 DEB",
        "meta_object_id": "1993-036ABE",
        "meta_epoch": "2025-12-03T13:51:22.817952",
        "meta_mean_motion": 14.78088557,
        "meta_eccentricity": 0.00590507,
        "meta_inclination": 74.0463,
        "meta_ra_of_asc_node": 259.7872,
        "meta_arg_of_pericenter": 330.9325,
        "meta_mean_anomaly": 28.8566,
        "meta_ephemeris_type": 0,
        "meta_classification_type": "U",
        "meta_norad_cat_id": 34815,
        "meta_element_set_no": 999,
        "meta_rev_at_epoch": 88492,
        "meta_bstar": 0.001634406,
        "meta_mean_motion_dot": 0.00012155,
        "meta_mean_motion_ddot": 0,
        "tle_line1": "1 34815U 93036ABE 25337.57734743  .00012155  00000+0  16344-2 0  9995",
        "tle_line2": "2 34815  74.0463 259.7872 0059050 330.9325  28.8566 14.78088557884920"
      },
      "geometry": {
        "type": "Point",
        "coordinates": [
          -105.31628472067534,
          -10.30992725861063
        ]
      }
    },
    {
      "type": "Feature",
      "properties": {
        "norad_id": 34816,
        "name": "COSMOS 2251 DEB",
        "group": "cosmos-2251-debris",
        "lat": -3.5965128109363556,
        "lon": -22.651114312901957,
        "alt_km": 824.0617295605489,
        "timestamp": "2025-12-04T15:47:54.494404+00:00",
        "meta_object_name": "COSMOS 2251 DEB",
        "meta_object_id": "1993-036ABF",
        "meta_epoch": "2025-12-04T06:55:01.796736",
        "meta_mean_motion": 13.5828868,
        "meta_eccentricity": 0.03737099,
        "meta_inclination": 73.8862,
        "meta_ra_of_asc_node": 156.9114,
        "meta_arg_of_pericenter": 222.8428,
        "meta_mean_anomaly": 314.5615,
        "meta_ephemeris_type": 0,
        "meta_classification_type": "U",
        "meta_norad_cat_id": 34816,
        "meta_element_set_no": 999,
        "meta_rev_at_epoch": 82668,
        "meta_bstar": 0.0017556025,
        "meta_mean_motion_dot": 1.988e-05,
        "meta_mean_motion_ddot": 0,
        "tle_line1": "1 34816U 93036ABF 25338.28821524  .00001988  00000+0  17556-2 0  9997",
        "tle_line2": "2 34816  73.8862 156.9114 0373709 222.8428 314.5615 13.58288680826686"
      },
      "geometry": {
        "type": "Point",
        "coordinates": [
          -22.651114312901957,
          -3.5965128109363556
        ]
      }
    },
    {
      "type": "Feature",
      "properties": {
        "norad_id": 34818,
        "name": "COSMOS 2251 DEB",
        "group": "cosmos-2251-debris",
        "lat": 23.695574428623733,
        "lon": -40.981623012120295,
        "alt_km": 750.8033249740165,
        "timestamp": "2025-12-04T15:47:54.494415+00:00",
        "meta_object_name": "COSMOS 2251 DEB",
        "meta_object_id": "1993-036ABH",
        "meta_epoch": "2025-12-02T09:14:30.798816",
        "meta_mean_motion": 14.36943811,
        "meta_eccentricity": 0.00237378,
        "meta_inclination": 74.0353,
        "meta_ra_of_asc_node": 315.979,
        "meta_arg_of_pericenter": 34.4087,
        "meta_mean_anomaly": 115.9286,
        "meta_ephemeris_type": 0,
        "meta_classification_type": "U",
        "meta_norad_cat_id": 34818,
        "meta_element_set_no": 999,
        "meta_rev_at_epoch": 87221,
        "meta_bstar": 0.00031365968,
        "meta_mean_motion_dot": 9.06e-06,
        "meta_mean_motion_ddot": 0,
        "tle_line1": "1 34818U 93036ABH 25336.38507869  .00000906  00000+0  31366-3 0  9996",
        "tle_line2": "2 34818  74.0353 315.9790 0023737  34.4087 115.9286 14.36943811872212"
      },
      "geometry": {
        "type": "Point",
        "coordinates": [
          -40.981623012120295,
          23.695574428623733
        ]
      }
    },
    {
      "type": "Feature",
      "properties": {
        "norad_id": 34819,
        "name": "COSMOS 2251 DEB",
        "group": "cosmos-2251-debris",
        "lat": -56.81515004955389,
        "lon": 4.184744762162672,
        "alt_km": 676.6461467060117,
        "timestamp": "2025-12-04T15:47:54.494425+00:00",
        "meta_object_name": "COSMOS 2251 DEB",
        "meta_object_id": "1993-036ABJ",
        "meta_epoch": "2025-12-04T05:40:34.334400",
        "meta_mean_motion": 14.6376102,
        "meta_eccentricity": 0.00160104,
        "meta_inclination": 74.0165,
        "meta_ra_of_asc_node": 159.0021,
        "meta_arg_of_pericenter": 252.5374,
        "meta_mean_anomaly": 286.3826,
        "meta_ephemeris_type": 0,
        "meta_classification_type": "U",
        "meta_norad_cat_id": 34819,
        "meta_element_set_no": 999,
        "meta_rev_at_epoch": 88104,
        "meta_bstar": 0.0032806772,
        "meta_mean_motion_dot": 0.00017148,
        "meta_mean_motion_ddot": 0,
        "tle_line1": "1 34819U 93036ABJ 25338.23650850  .00017148  00000+0  32807-2 0  9998",
        "tle_line2": "2 34819  74.0165 159.0021 0016010 252.5374 286.3826 14.63761020881040"
      },
      "geometry": {
        "type": "Point",
        "coordinates": [
          4.184744762162672,
          -56.81515004955389
        ]
      }
    },
    {
      "type": "Feature",
      "properties": {
        "norad_id": 34823,
        "name": "COSMOS 2251 DEB",
        "group": "cosmos-2251-debris",
        "lat": -8.2770573964846,
        "lon": -60.03634892444579,
        "alt_km": 607.3834848746419,
        "timestamp": "2025-12-04T15:47:54.494436+00:00",
        "meta_object_name": "COSMOS 2251 DEB",
        "meta_object_id": "1993-036ABN",
        "meta_epoch": "2025-12-03T09:13:20.032032",
        "meta_mean_motion": 14.54804511,
        "meta_eccentricity": 0.01555596,
        "meta_inclination": 74.0395,
        "meta_ra_of_asc_node": 119.9881,
        "meta_arg_of_pericenter": 207.0513,
        "meta_mean_anomaly": 152.2484,
        "meta_ephemeris_type": 0,
        "meta_classification_type": "U",
        "meta_norad_cat_id": 34823,
        "meta_element_set_no": 999,
        "meta_rev_at_epoch": 88245,
        "meta_bstar": 0.0013569091,
        "meta_mean_motion_dot": 6.819e-05,
        "meta_mean_motion_ddot": 0,
        "tle_line1": "1 34823U 93036ABN 25337.38425963  .00006819  00000+0  13569-2 0  9990",
        "tle_line2": "2 34823  74.0395 119.9881 0155559 207.0513 152.2484 14.54804511882451"
      },
      "geometry": {
        "type": "Point",
        "coordinates": [
          -60.03634892444579,
          -8.2770573964846
        ]
      }
    }
  ]
}